{
"type": "FeatureCollection",
"name": "contur",
"crs": { "type": "name", "properties": { "name": "urn:ogc:def:crs:OGC:1.3:CRS84" } },
"features": [
{ "type": "Feature", "properties": { "id": 1 }, "geometry": { "type": "MultiPolygon", "coordinates": [ [ [ [ 27.549784880843951, 47.442614275240132 ], [ 27.550314909106405, 47.442740336329706 ], [ 27.550932368012752, 47.442870295899638 ], [ 27.551570003221535, 47.443000471746991 ], [ 27.551650708431286, 47.442748350512467 ], [ 27.551790020995739, 47.442320564725605 ], [ 27.551947268051254, 47.441838841275455 ], [ 27.551944705981104, 47.441801585501125 ], [ 27.551910118034069, 47.441702814250789 ], [ 27.551821726613866, 47.441425777232396 ], [ 27.551709315785988, 47.441143106996144 ], [ 27.550842055039933, 47.441132709901026 ], [ 27.550762630865258, 47.441304261707756 ], [ 27.550671677374904, 47.441488809238898 ], [ 27.550350778088514, 47.441776026291848 ], [ 27.550207622418831, 47.441941944327347 ], [ 27.549784880843951, 47.442614275240132 ] ] ] ] } }
]
}
