{
"type": "FeatureCollection",
"name": "con",
"crs": { "type": "name", "properties": { "name": "urn:ogc:def:crs:OGC:1.3:CRS84" } },
"features": [
{ "type": "Feature", "properties": { "id": 1 }, "geometry": { "type": "MultiPolygon", "coordinates": [ [ [ [ 27.551545788902903, 47.442993048823489 ], [ 27.551706390113761, 47.44251271209464 ], [ 27.551752786019129, 47.442376937726735 ], [ 27.55186699132463, 47.442007629673171 ], [ 27.551895542651007, 47.441898405716131 ], [ 27.551895542651007, 47.441792198778039 ], [ 27.551852715661443, 47.441671508815361 ], [ 27.551792044092895, 47.441538749536662 ], [ 27.551717096861157, 47.441279867979588 ], [ 27.551656425292606, 47.441195384212058 ], [ 27.551620736134637, 47.441173659792781 ], [ 27.551417307934212, 47.441173659792781 ], [ 27.550849850322486, 47.441159176841595 ], [ 27.550814161164514, 47.441161590667065 ], [ 27.550732076101188, 47.441330558174968 ], [ 27.550703524774811, 47.441390903582004 ], [ 27.550625008627279, 47.441501938950061 ], [ 27.550442993921635, 47.441680560572181 ], [ 27.550257410300187, 47.441844698825378 ], [ 27.550082533426139, 47.4420860776792 ], [ 27.549989741615413, 47.442262283543158 ], [ 27.549786313414984, 47.442627365732434 ], [ 27.551545788902903, 47.442993048823489 ] ] ] ] } }
]
}
