{
"type": "FeatureCollection",
"name": "conturr",
"crs": { "type": "name", "properties": { "name": "urn:ogc:def:crs:OGC:1.3:CRS84" } },
"features": [
{ "type": "Feature", "properties": { "id": 1 }, "geometry": { "type": "MultiPolygon", "coordinates": [ [ [ [ 27.551572283039341, 47.442996862794331 ], [ 27.551572283039341, 47.442996862794331 ], [ 27.551704842768721, 47.442606065146656 ], [ 27.551799099795925, 47.442308358643331 ], [ 27.551918308801515, 47.441922386992708 ], [ 27.551905626992383, 47.441784294225506 ], [ 27.551750908921083, 47.441412042351821 ], [ 27.551687499875442, 47.441166303208426 ], [ 27.550837818664689, 47.441150864061825 ], [ 27.550723682382696, 47.441408182583785 ], [ 27.550711000573582, 47.441447637979152 ], [ 27.550429464411277, 47.44172039403383 ], [ 27.550323571305182, 47.441834041972534 ], [ 27.55025255317414, 47.441875212486039 ], [ 27.550077544208396, 47.442156543465636 ], [ 27.549818835302531, 47.442630857229062 ], [ 27.551572283039341, 47.442996862794331 ] ] ] ] } }
]
}
