{
"type": "FeatureCollection",
"name": "lim-mag",
"crs": { "type": "name", "properties": { "name": "urn:ogc:def:crs:OGC:1.3:CRS84" } },
"features": [
{ "type": "Feature", "properties": { "id": 1 }, "geometry": { "type": "MultiPolygon", "coordinates": [ [ [ [ 27.551963749538555, 47.442530983524485 ], [ 27.551957269435533, 47.442536827102884 ], [ 27.552378476131953, 47.442549975151778 ], [ 27.552363355891526, 47.442308927065191 ], [ 27.552030710603081, 47.442322075171184 ], [ 27.551963749538555, 47.442530983524485 ] ] ] ] } }
]
}
