{
"type": "FeatureCollection",
"name": "limita-biserica",
"crs": { "type": "name", "properties": { "name": "urn:ogc:def:crs:OGC:1.3:CRS84" } },
"features": [
{ "type": "Feature", "properties": { "id": 1 }, "geometry": { "type": "MultiPolygon", "coordinates": [ [ [ [ 27.551839141969129, 47.442878288044604 ], [ 27.552136811895426, 47.442925536966975 ], [ 27.552456047704123, 47.442968266390636 ], [ 27.552464401968439, 47.442724366067715 ], [ 27.552219343546874, 47.442711182234312 ], [ 27.551911628142506, 47.442688581369367 ], [ 27.551839141969129, 47.442878288044604 ] ] ] ] } }
]
}
