{
"type": "FeatureCollection",
"name": "limita-scoalap",
"crs": { "type": "name", "properties": { "name": "urn:ogc:def:crs:OGC:1.3:CRS84" } },
"features": [
{ "type": "Feature", "properties": { "id": 1 }, "geometry": { "type": "MultiPolygon", "coordinates": [ [ [ [ 27.551486535331321, 47.443712359225671 ], [ 27.551817040562206, 47.443787313789471 ], [ 27.552005052519785, 47.443270660519637 ], [ 27.552005061339493, 47.443270660877289 ], [ 27.552189106330999, 47.443297430243675 ], [ 27.55224056223517, 47.443162912242258 ], [ 27.552634397809694, 47.443197712952156 ], [ 27.55264825132236, 47.443144173388809 ], [ 27.552454302144913, 47.442967492443245 ], [ 27.552125775987285, 47.442924660609528 ], [ 27.551838810367656, 47.442877813251457 ], [ 27.551631007677674, 47.44339647810456 ], [ 27.551500388843998, 47.443690943616396 ], [ 27.551492472551029, 47.443713697701 ], [ 27.551486535331321, 47.443712359225671 ] ] ] ] } }
]
}
