{
"type": "FeatureCollection",
"name": "limita-h",
"crs": { "type": "name", "properties": { "name": "urn:ogc:def:crs:OGC:1.3:CRS84" } },
"features": [
{ "type": "Feature", "properties": { "id": 1 }, "geometry": { "type": "MultiPolygon", "coordinates": [ [ [ [ 27.551567097175251, 47.443000681750924 ], [ 27.551905919069963, 47.441990831245739 ], [ 27.551567105995154, 47.443000682108597 ], [ 27.551945207817596, 47.441844809379134 ], [ 27.551946166479279, 47.441804575112286 ], [ 27.551879310604477, 47.441615772173144 ], [ 27.551821129040448, 47.441426778837638 ], [ 27.551706162178757, 47.441138992877391 ], [ 27.550841430345155, 47.441134480575002 ], [ 27.550749798334298, 47.441334617069934 ], [ 27.550670453330014, 47.441489366596393 ], [ 27.550357227552759, 47.441771859915939 ], [ 27.550207049218379, 47.441941898167038 ], [ 27.550000374930391, 47.442275990626889 ], [ 27.549785243538182, 47.442614682191653 ], [ 27.550335122528292, 47.442746275537658 ], [ 27.551567097175251, 47.443000681750924 ] ] ] ] } }
]
}
