{
"type": "FeatureCollection",
"name": "limita_hermeziu_muzeu",
"crs": { "type": "name", "properties": { "name": "urn:ogc:def:crs:OGC:1.3:CRS84" } },
"features": [
{ "type": "Feature", "properties": { "id": 1 }, "geometry": { "type": "MultiPolygon", "coordinates": [ [ [ [ 27.551572319284183, 47.442999418583355 ], [ 27.551604571491602, 47.442896875149955 ], [ 27.551935172261267, 47.441885125725086 ], [ 27.551954318120881, 47.441757160081565 ], [ 27.551864388321281, 47.441523711725118 ], [ 27.551788238365951, 47.441329786110252 ], [ 27.551705292056241, 47.441149117322915 ], [ 27.551208475071093, 47.44113988452311 ], [ 27.550846852439825, 47.441129691986369 ], [ 27.550833643286481, 47.441164263252084 ], [ 27.550810475214078, 47.441208127898832 ], [ 27.550779566911295, 47.441276613000184 ], [ 27.550723375574321, 47.441406905766485 ], [ 27.550681822107425, 47.441470331670331 ], [ 27.550581094665951, 47.441562786232701 ], [ 27.55040518622349, 47.441738058876339 ], [ 27.550245184401476, 47.441896345175557 ], [ 27.550141647132218, 47.442062211642117 ], [ 27.550058838517185, 47.442195357983927 ], [ 27.549963955212224, 47.442355740601826 ], [ 27.549790840443187, 47.442620685398168 ], [ 27.550132099961438, 47.442702159057312 ], [ 27.550559216844377, 47.442776449852083 ], [ 27.551116983124665, 47.442894496465506 ], [ 27.551572319284183, 47.442999418583355 ] ] ] ] } }
]
}
