{
"type": "FeatureCollection",
"name": "plan",
"crs": { "type": "name", "properties": { "name": "urn:ogc:def:crs:OGC:1.3:CRS84" } },
"features": [
{ "type": "Feature", "properties": { "Shape_Leng": 615.50829135599997, "Shape_Area": 22939.031585600002 }, "geometry": { "type": "MultiPolygon", "coordinates": [ [ [ [ 27.551562392729494, 47.442959005346331, 0.0 ], [ 27.551634115089819, 47.442739001598476, 0.0 ], [ 27.551727416435469, 47.442457981270493, 0.0 ], [ 27.551838347397535, 47.442106534789154, 0.0 ], [ 27.551855419801306, 47.442061049763467, 0.0 ], [ 27.551920421517078, 47.441810328954162, 0.0 ], [ 27.551922046726343, 47.44177111981292, 0.0 ], [ 27.551887682058442, 47.44167453385473, 0.0 ], [ 27.551727444888119, 47.441287507061112, 0.0 ], [ 27.551645073094665, 47.441101758878894, 0.0 ], [ 27.550747303964442, 47.441062157176766, 0.0 ], [ 27.55066232447026, 47.441261083853995, 0.0 ], [ 27.55062074127904, 47.441379520489342, 0.0 ], [ 27.550363639481748, 47.44167482705673, 0.0 ], [ 27.550175472816317, 47.441874836039418, 0.0 ], [ 27.550063476647431, 47.44205773719839, 0.0 ], [ 27.54989099940061, 47.4423298131763, 0.0 ], [ 27.549870995370615, 47.442387233311194, 0.0 ], [ 27.549826293361406, 47.442440448357338, 0.0 ], [ 27.549723375334409, 47.442630272240763, 0.0 ], [ 27.550990151826227, 47.442848138420487, 0.0 ], [ 27.551562392729494, 47.442959005346331, 0.0 ] ] ] ] } }
]
}
